INTELSAT 902 (IS-902)   
1 26900U 01039A   26188.49142750 -.00000272  00000+0  00000+0 0  9997
2 26900   6.1673  71.5349 0004415  31.4521 309.2722  1.00272462 90896
INTELSAT 904 (IS-904)   
1 27380U 02007A   26188.49524087 -.00000214  00000+0  00000+0 0  9999
2 27380   6.9674  68.9385 0005649  20.5791 342.7553  1.00272979 51979
DIRECTV 5 (TEMPO 1)     
1 27426U 02023A   26188.45094175 -.00000045  00000+0  00000+0 0  9996
2 27426   4.9262  75.0587 0003143  33.3829 229.2125  1.00271114 88328
INTELSAT 905 (IS-905)   
1 27438U 02027A   26188.44558884  .00000105  00000+0  00000+0 0  9990
2 27438   6.8010  69.5535 0003705  40.9906 198.0798  1.00272011 51560
GALAXY 3C (G-3C)        
1 27445U 02030A   26188.44407551 -.00000140  00000+0  00000+0 0  9996
2 27445   3.7823  77.7148 0001675  35.7387 237.0025  1.00271324 46697
INTELSAT 906 (IS-906)   
1 27513U 02041A   26188.22903147  .00000025  00000+0  00000+0 0  9993
2 27513   5.8521  72.6749 0004011  15.3631 343.7400  1.00271515 87223
GALAXY 13 (HORIZONS-1)  
1 27954U 03044A   26188.49072549  .00000147  00000+0  00000+0 0  9993
2 27954   1.4706  83.6050 0001751  22.5630 205.9511  1.00274487 46771
INTELSAT 10-02          
1 28358U 04022A   26188.28744912  .00000003  00000+0  00000+0 0  9997
2 28358   0.0448 260.4083 0000323  25.0168 102.3088  1.00264278 80759
DIRECTV 8               
1 28659U 05019A   26188.47790743  .00000016  00000+0  00000+0 0  9996
2 28659   0.0194  48.3326 0003150  70.6585 219.4520  1.00271845 77276
GALAXY 28 (G-28)        
1 28702U 05022A   26188.35354713 -.00000187  00000+0  00000+0 0  9999
2 28702   3.3472  78.6900 0002215  28.9129 277.8982  1.00271636 52175
GALAXY 16 (G-16)        
1 29236U 06023A   26188.48189412 -.00000111  00000+0  00000+0 0  9997
2 29236   0.0306 131.3930 0002510 339.7114 248.8212  1.00270714 73176
DIRECTV 9S              
1 29494U 06043A   26188.45540163 -.00000100  00000+0  00000+0 0  9994
2 29494   2.4698  80.6628 0005156  28.9909 238.5162  1.00271182 51581
GALAXY 17 (G-17)        
1 31307U 07016B   26188.48466748 -.00000193  00000+0  00000+0 0  9992
2 31307   3.0197  79.6477 0003719  26.4241 268.8370  1.00272229 70001
INTELSAT 11 (IS-11)     
1 32253U 07044B   26188.15251458  .00000047  00000+0  00000+0 0  9995
2 32253   3.6140  78.4311 0003802  95.5207 204.0213  0.99049333 68642
HORIZONS-2              
1 32388U 07063B   26188.19776697 -.00000240  00000+0  00000+0 0  9992
2 32388   2.6504  80.3851 0003807  13.2405 188.9469  1.00272330 68019
DIRECTV 11              
1 32729U 08013A   26187.62633208 -.00000111  00000+0  00000+0 0  9991
2 32729   0.0429 214.4667 0000241 227.3670 329.0652  1.00269705 45785
GALAXY 18 (G-18)        
1 32951U 08024A   26188.47712743  .00000040  00000+0  00000+0 0  9996
2 32951   0.0137 319.6708 0002932 156.8351 217.7099  1.00272886 46056
GALAXY 19 (G-19)        
1 33376U 08045A   26188.48215412 -.00000124  00000+0  00000+0 0  9997
2 33376   0.0580 253.7946 0002817 236.2828 231.9385  1.00271651 65108
FM-5                    
1 35493U 09034A   26187.77146750 -.00000185  00000+0  00000+0 0  9994
2 35493   0.0414 265.3083 0001165  77.7507 133.2586  1.00271114 46845
INTELSAT 14 (IS-14)     
1 36097U 09064A   26188.42126333  .00000000  00000+0  00000+0 0  9991
2 36097   0.0221  18.1154 0002285  98.3782 275.5629  1.00269047 60805
INTELSAT 15 (IS-15)     
1 36106U 09067A   26188.46503035 -.00000170  00000+0  00000+0 0  9996
2 36106   0.0168  27.0994 0002254  84.0901  66.8054  1.00271270 41430
DIRECTV 12              
1 36131U 09075A   26187.91080358 -.00000088  00000+0  00000+0 0  9998
2 36131   0.0412 201.0027 0000151 333.1848 335.8588  1.00269850 46755
INTELSAT 16 (IS-16)     
1 36397U 10006A   26187.84481654 -.00000230  00000+0  00000+0 0  9993
2 36397   0.0169 315.0873 0002475 173.1047  24.5633  1.00270016 59851
XM-5                    
1 37185U 10053A   26188.47868743 -.00000008  00000+0  00000+0 0  9992
2 37185   0.0646 268.2720 0001745 309.3889 124.9177  1.00270830 57684
INTELSAT 17 (IS-17)     
1 37238U 10065B   26188.51459104  .00000014  00000+0  00000+0 0  9992
2 37238   0.0087  75.3621 0002601  36.1644  65.1949  1.00272576 53458
INTELSAT 28 (IS-28)     
1 37392U 11016A   26187.71099740 -.00000211  00000+0  00000+0 0  9997
2 37392   1.8534  82.3902 0003753  27.7420  38.7679  1.00270512 53489
INTELSAT 18 (IS-18)     
1 37834U 11056A   26188.51452325  .00000068  00000+0  00000+0 0  9992
2 37834   0.0165 336.4413 0001840 141.1321 173.1256  1.00271536 54019
INTELSAT 22 (IS-22)     
1 38098U 12011A   26188.51580440  .00000000  00000+0  00000+0 0  9993
2 38098   0.0278  56.4651 0001796  66.5377  60.2497  1.00269440  7394
INTELSAT 19 (IS-19)     
1 38356U 12030A   26188.50747097 -.00000041  00000+0  00000+0 0  9999
2 38356   0.0114   0.4924 0003131 119.7246 153.9485  1.00271539 50659
INTELSAT 20 (IS-20)     
1 38740U 12043A   26188.44379677 -.00000009  00000+0  00000+0 0  9992
2 38740   0.0106  50.0191 0001238 129.3219 334.3244  1.00271979 50956
INTELSAT 21 (IS-21)     
1 38749U 12045A   26188.48995418 -.00000270  00000+0  00000+0 0  9994
2 38749   0.0171 341.9625 0001788 145.7856 276.0932  1.00270181 50725
