OBJECT_NAME,OBJECT_ID,EPOCH,MEAN_MOTION,ECCENTRICITY,INCLINATION,RA_OF_ASC_NODE,ARG_OF_PERICENTER,MEAN_ANOMALY,EPHEMERIS_TYPE,CLASSIFICATION_TYPE,NORAD_CAT_ID,ELEMENT_SET_NO,REV_AT_EPOCH,BSTAR,MEAN_MOTION_DOT,MEAN_MOTION_DDOT
INTELSAT 902 (IS-902),2001-039A,2026-07-07T11:47:39.336000,1.00272462,.0004415,6.1673,71.5349,31.4521,309.2722,0,U,26900,999,9089,0,-.272E-5,0
INTELSAT 904 (IS-904),2002-007A,2026-07-07T11:53:08.811168,1.00272979,.0005649,6.9674,68.9385,20.5791,342.7553,0,U,27380,999,5197,0,-.214E-5,0
DIRECTV 5 (TEMPO 1),2002-023A,2026-07-07T10:49:21.367200,1.00271114,.0003143,4.9262,75.0587,33.3829,229.2125,0,U,27426,999,8832,0,-.45E-6,0
INTELSAT 905 (IS-905),2002-027A,2026-07-07T10:41:38.875776,1.00272011,.0003705,6.8010,69.5535,40.9906,198.0798,0,U,27438,999,5156,0,.105E-5,0
GALAXY 3C (G-3C),2002-030A,2026-07-07T10:39:28.124064,1.00271324,.0001675,3.7823,77.7148,35.7387,237.0025,0,U,27445,999,4669,0,-.14E-5,0
INTELSAT 906 (IS-906),2002-041A,2026-07-07T05:29:48.319008,1.00271515,.0004011,5.8521,72.6749,15.3631,343.7400,0,U,27513,999,8722,0,.25E-6,0
GALAXY 13 (HORIZONS-1),2003-044A,2026-07-07T11:46:38.682336,1.00274487,.0001751,1.4706,83.6050,22.5630,205.9511,0,U,27954,999,4677,0,.147E-5,0
INTELSAT 10-02,2004-022A,2026-07-07T06:53:55.603968,1.00264278,.0000323,0.0448,260.4083,25.0168,102.3088,0,U,28358,999,8075,0,.3E-7,0
DIRECTV 8,2005-019A,2026-07-07T11:28:11.201952,1.00271845,.000315,0.0194,48.3326,70.6585,219.4520,0,U,28659,999,7727,0,.16E-6,0
GALAXY 28 (G-28),2005-022A,2026-07-07T08:29:06.472032,1.00271636,.0002215,3.3472,78.6900,28.9129,277.8982,0,U,28702,999,5217,0,-.187E-5,0
GALAXY 16 (G-16),2006-023A,2026-07-07T11:33:55.651968,1.00270714,.000251,0.0306,131.3930,339.7114,248.8212,0,U,29236,999,7317,0,-.111E-5,0
DIRECTV 9S,2006-043A,2026-07-07T10:55:46.700832,1.00271182,.0005156,2.4698,80.6628,28.9909,238.5162,0,U,29494,999,5158,0,-.1E-5,0
GALAXY 17 (G-17),2007-016B,2026-07-07T11:37:55.270272,1.00272229,.0003719,3.0197,79.6477,26.4241,268.8370,0,U,31307,999,7000,0,-.193E-5,0
INTELSAT 11 (IS-11),2007-044B,2026-07-07T03:39:37.259712,0.99049333,.0003802,3.6140,78.4311,95.5207,204.0213,0,U,32253,999,6864,0,.47E-6,0
HORIZONS-2,2007-063B,2026-07-07T04:44:47.066208,1.00272330,.0003807,2.6504,80.3851,13.2405,188.9469,0,U,32388,999,6801,0,-.24E-5,0
DIRECTV 11,2008-013A,2026-07-06T15:01:55.091712,1.00269705,.0000241,0.0429,214.4667,227.3670,329.0652,0,U,32729,999,4578,0,-.111E-5,0
GALAXY 18 (G-18),2008-024A,2026-07-07T11:27:03.809952,1.00272886,.0002932,0.0137,319.6708,156.8351,217.7099,0,U,32951,999,4605,0,.4E-6,0
GALAXY 19 (G-19),2008-045A,2026-07-07T11:34:18.115968,1.00271651,.0002817,0.0580,253.7946,236.2828,231.9385,0,U,33376,999,6510,0,-.124E-5,0
FM-5,2009-034A,2026-07-06T18:30:54.792000,1.00271114,.0001165,0.0414,265.3083,77.7507,133.2586,0,U,35493,999,4684,0,-.185E-5,0
INTELSAT 14 (IS-14),2009-064A,2026-07-07T10:06:37.151712,1.00269047,.0002285,0.0221,18.1154,98.3782,275.5629,0,U,36097,999,6080,0,0,0
INTELSAT 15 (IS-15),2009-067A,2026-07-07T11:09:38.622240,1.00271270,.0002254,0.0168,27.0994,84.0901,66.8054,0,U,36106,999,4143,0,-.17E-5,0
DIRECTV 12,2009-075A,2026-07-06T21:51:33.429312,1.00269850,.0000151,0.0412,201.0027,333.1848,335.8588,0,U,36131,999,4675,0,-.88E-6,0
INTELSAT 16 (IS-16),2010-006A,2026-07-06T20:16:32.149056,1.00270016,.0002475,0.0169,315.0873,173.1047,24.5633,0,U,36397,999,5985,0,-.23E-5,0
XM-5,2010-053A,2026-07-07T11:29:18.593952,1.00270830,.0001745,0.0646,268.2720,309.3889,124.9177,0,U,37185,999,5768,0,-.8E-7,0
INTELSAT 17 (IS-17),2010-065B,2026-07-07T12:21:00.665856,1.00272576,.0002601,0.0087,75.3621,36.1644,65.1949,0,U,37238,999,5345,0,.14E-6,0
INTELSAT 28 (IS-28),2011-016A,2026-07-06T17:03:50.175360,1.00270512,.0003753,1.8534,82.3902,27.7420,38.7679,0,U,37392,999,5348,0,-.211E-5,0
INTELSAT 18 (IS-18),2011-056A,2026-07-07T12:20:54.808800,1.00271536,.000184,0.0165,336.4413,141.1321,173.1256,0,U,37834,999,5401,0,.68E-6,0
INTELSAT 22 (IS-22),2012-011A,2026-07-07T12:22:45.500160,1.00269440,.0001796,0.0278,56.4651,66.5377,60.2497,0,U,38098,999,739,0,0,0
INTELSAT 19 (IS-19),2012-030A,2026-07-07T12:10:45.491808,1.00271539,.0003131,0.0114,0.4924,119.7246,153.9485,0,U,38356,999,5065,0,-.41E-6,0
INTELSAT 20 (IS-20),2012-043A,2026-07-07T10:39:04.040928,1.00271979,.0001238,0.0106,50.0191,129.3219,334.3244,0,U,38740,999,5095,0,-.9E-7,0
INTELSAT 21 (IS-21),2012-045A,2026-07-07T11:45:32.041152,1.00270181,.0001788,0.0171,341.9625,145.7856,276.0932,0,U,38749,999,5072,0,-.27E-5,0
